OBJECT_NAME,OBJECT_ID,EPOCH,MEAN_MOTION,ECCENTRICITY,INCLINATION,RA_OF_ASC_NODE,ARG_OF_PERICENTER,MEAN_ANOMALY,EPHEMERIS_TYPE,CLASSIFICATION_TYPE,NORAD_CAT_ID,ELEMENT_SET_NO,REV_AT_EPOCH,BSTAR,MEAN_MOTION_DOT,MEAN_MOTION_DDOT
IONOSFERA-M 2,2024-199B,2026-07-08T14:34:12.496512,14.22761570,.00003185,98.7145,62.4609,90.7053,269.4161,0,U,61736,999,13387,.31598154E-4,.27E-6,0
PRSC-EO1,2025-012A,2026-07-08T13:17:27.540672,15.17725761,.00063553,97.4216,261.5954,169.7757,190.3607,0,U,62725,999,8143,.22772646E-3,.4529E-4,0
BIOMASS,2025-090A,2026-07-08T12:19:36.653952,14.67537649,.00014178,98.0748,16.5165,90.9760,269.1607,0,U,63772,999,6381,.15236944E-3,.816E-5,0
GOSAT-GW (IBUKI GW),2025-141A,2026-07-08T14:22:44.688576,14.67553250,.00014424,98.0567,126.5683,84.3080,275.8289,0,U,64694,999,5498,.31569143E-4,.131E-5,0
IONOSFERA-M 3,2025-155A,2026-07-08T13:45:57.616128,14.21490042,.00020707,98.6036,150.9414,122.2369,237.9010,0,U,64876,999,4944,.30769937E-4,.24E-6,0
IONOSFERA-M 4,2025-155B,2026-07-08T12:54:43.208640,14.21492411,.00016998,98.6035,150.8239,106.3191,253.8173,0,U,64877,999,4943,.29101137E-4,.21E-6,0
MICROCARB,2025-156A,2026-07-08T11:38:41.979840,14.72880348,.00170853,98.0076,266.2814,192.1383,167.9415,0,U,64899,999,5110,.72302017E-4,.414E-5,0
CO3D 3,2025-156B,2026-07-08T12:20:28.930272,15.20201432,.00018417,97.4332,267.9006,100.5602,259.5840,0,U,64900,999,5277,.14250213E-3,.3018E-4,0
CO3D 4,2025-156C,2026-07-08T12:20:41.707968,15.20193744,.00011149,97.4334,267.9005,165.8608,194.2659,0,U,64901,999,5277,.61806271E-4,.127E-4,0
CO3D 2,2025-156D,2026-07-08T13:07:27.341472,15.20211060,.0001354,97.4332,267.8316,89.7520,270.3870,0,U,64902,999,5277,.14157926E-3,.2999E-4,0
CO3D 1,2025-156E,2026-07-08T13:07:40.213344,15.20190445,.00012816,97.4332,267.8318,98.6152,261.5229,0,U,64903,999,5277,.15056291E-3,.3192E-4,0
PRSC-S1,2025-164A,2026-07-08T09:52:47.221824,15.06600682,.00056001,41.1289,168.2607,150.8616,209.2511,0,U,65055,999,5163,.14780639E-3,.205E-4,0
SENTINEL-6B,2025-264A,2026-07-08T11:29:14.298144,12.80930110,.00078833,66.0415,90.9573,268.8393,91.1719,0,U,66514,999,2989,-.18337637E-4,-.65E-6,0
CAS500-3,2025-274F,2026-07-08T12:39:07.798176,14.88373738,.00066781,97.7440,117.0929,55.9209,304.2641,0,U,66655,999,3332,.10922557E-3,.958E-5,0
CSG-3,2026-001A,2026-07-08T11:09:23.266368,14.82148754,.00015032,97.8893,12.7589,91.8934,268.2451,0,U,67304,999,2761,.3016353E-4,.188E-5,0
PRSC-E03,2026-092A,2026-07-08T12:40:29.823744,15.06788129,.00042838,38.0023,323.8282,209.3262,150.7260,0,U,68835,999,1117,.12293491E-3,.1756E-4,0
CAS500-2,2026-100AK,2026-07-08T14:28:33.283200,15.20851724,.00082509,97.3876,87.0549,319.5403,40.5218,0,U,69013,999,1006,.20576789E-3,.4478E-4,0
