IONOSFERA-M 2           
1 61736U 24199B   26189.60708908  .00000027  00000+0  31598-4 0  9990
2 61736  98.7145  62.4609 0000318  90.7053 269.4161 14.22761570133878
PRSC-EO1                
1 62725U 25012A   26189.55379098  .00004529  00000+0  22773-3 0  9997
2 62725  97.4216 261.5954 0006355 169.7757 190.3607 15.17725761 81430
BIOMASS                 
1 63772U 25090A   26189.51361868  .00000816  00000+0  15237-3 0  9990
2 63772  98.0748  16.5165 0001417  90.9760 269.1607 14.67537649 63812
GOSAT-GW (IBUKI GW)     
1 64694U 25141A   26189.59912834  .00000131  00000+0  31569-4 0  9991
2 64694  98.0567 126.5683 0001442  84.3080 275.8289 14.67553250 54986
IONOSFERA-M 3           
1 64876U 25155A   26189.57358352  .00000024  00000+0  30770-4 0  9999
2 64876  98.6036 150.9414 0002070 122.2369 237.9010 14.21490042 49443
IONOSFERA-M 4           
1 64877U 25155B   26189.53800010  .00000021  00000+0  29101-4 0  9992
2 64877  98.6035 150.8239 0001699 106.3191 253.8173 14.21492411 49437
MICROCARB               
1 64899U 25156A   26189.48520810  .00000414  00000+0  72302-4 0  9995
2 64899  98.0076 266.2814 0017085 192.1383 167.9415 14.72880348 51100
CO3D 3                  
1 64900U 25156B   26189.51422373  .00003018  00000+0  14250-3 0  9997
2 64900  97.4332 267.9006 0001841 100.5602 259.5840 15.20201432 52771
CO3D 4                  
1 64901U 25156C   26189.51437162  .00001270  00000+0  61806-4 0  9998
2 64901  97.4334 267.9005 0001114 165.8608 194.2659 15.20193744 52775
CO3D 2                  
1 64902U 25156D   26189.54684423  .00002999  00000+0  14158-3 0  9992
2 64902  97.4332 267.8316 0001354  89.7520 270.3870 15.20211060 52774
CO3D 1                  
1 64903U 25156E   26189.54699321  .00003192  00000+0  15056-3 0  9990
2 64903  97.4332 267.8318 0001281  98.6152 261.5229 15.20190445 52779
PRSC-S1                 
1 65055U 25164A   26189.41165766  .00002050  00000+0  14781-3 0  9991
2 65055  41.1289 168.2607 0005600 150.8616 209.2511 15.06600682 51635
SENTINEL-6B             
1 66514U 25264A   26189.47863771 -.00000065  00000+0 -18338-4 0  9999
2 66514  66.0415  90.9573 0007883 268.8393  91.1719 12.80930110 29895
CAS500-3                
1 66655U 25274F   26189.52717359  .00000958  00000+0  10923-3 0  9992
2 66655  97.7440 117.0929 0006678  55.9209 304.2641 14.88373738 33320
CSG-3                   
1 67304U 26001A   26189.46485262  .00000188  00000+0  30164-4 0  9996
2 67304  97.8893  12.7589 0001503  91.8934 268.2451 14.82148754 27619
PRSC-E03                
1 68835U 26092A   26189.52812296  .00001756  00000+0  12293-3 0  9998
2 68835  38.0023 323.8282 0004283 209.3262 150.7260 15.06788129 11175
CAS500-2                
1 69013U 26100AK  26189.60316300  .00004478  00000+0  20577-3 0  9999
2 69013  97.3876  87.0549 0008250 319.5403  40.5218 15.20851724 10066
